#cV2021  1 17  0  0  0.00000000    5041 SLR   SLR08 EST ESA                     
## 2141      0.00000000   120.00000000 59231 0.0000000000000                    
+    1   L51  0  0  0  0  0  0  0  0  0  0  0  0  0  0  0  0                    
+          0  0  0  0  0  0  0  0  0  0  0  0  0  0  0  0  0                    
+          0  0  0  0  0  0  0  0  0  0  0  0  0  0  0  0  0                    
+          0  0  0  0  0  0  0  0  0  0  0  0  0  0  0  0  0                    
+          0  0  0  0  0  0  0  0  0  0  0  0  0  0  0  0  0                    
++         0  0  0  0  0  0  0  0  0  0  0  0  0  0  0  0  0                    
++         0  0  0  0  0  0  0  0  0  0  0  0  0  0  0  0  0                    
++         0  0  0  0  0  0  0  0  0  0  0  0  0  0  0  0  0                    
++         0  0  0  0  0  0  0  0  0  0  0  0  0  0  0  0  0                    
++         0  0  0  0  0  0  0  0  0  0  0  0  0  0  0  0  0                    
%c M  cc UTC ccc cccc cccc cccc cccc ccccc ccccc ccccc ccccc                    
%c cc cc ccc ccc cccc cccc cccc cccc ccccc ccccc ccccc ccccc                    
%f  0.0000000  0.000000000  0.00000000000  0.000000000000000                    
%f  0.0000000  0.000000000  0.00000000000  0.000000000000000                    
%i    0    0    0    0      0      0      0      0         0                    
%i    0    0    0    0      0      0      0      0         0                    
/*                                                                              
/*                                                                              
/*                                                                              
/* PCV:none       OL/AL:FES2004  NONE     YN ORB:CoN                            
*  2021  1 21  5 12  0.00000000                                                 
PL51   3847.936056  -2714.216261  11308.483681 999999.999999                    
VL51 -51225.808199 -29661.690346  10569.459227 999999.999999                    
*  2021  1 21  5 14  0.00000000                                                 
PL51   3224.631437  -3060.422127  11417.613749 999999.999999                    
VL51 -52627.070911 -28020.671991   7614.523468 999999.999999                    
*  2021  1 21  5 16  0.00000000                                                 
PL51   2585.647238  -3386.282690  11491.146140 999999.999999                    
VL51 -53838.136572 -26272.242528   4638.062863 999999.999999                    
*  2021  1 21  5 18  0.00000000                                                 
PL51   1933.297986  -3690.561511  11528.878407 999999.999999                    
VL51 -54853.770283 -24425.215942   1649.389910 999999.999999                    
*  2021  1 21  5 20  0.00000000                                                 
PL51   1269.956476  -3972.130177  11530.719940 999999.999999                    
VL51 -55669.498106 -22488.776090  -1342.173141 999999.999999                    
*  2021  1 21  5 22  0.00000000                                                 
PL51    598.044545  -4229.972491  11496.691910 999999.999999                    
VL51 -56281.623162 -20472.433796  -4327.323173 999999.999999                    
*  2021  1 21  5 24  0.00000000                                                 
PL51    -79.976338  -4463.188124  11426.926868 999999.999999                    
VL51 -56687.238600 -18385.983021  -7296.804672 999999.999999                    
*  2021  1 21  5 26  0.00000000                                                 
PL51   -761.614611  -4670.995754  11321.668005 999999.999999                    
VL51 -56884.237431 -16239.456273 -10241.437687 999999.999999                    
*  2021  1 21  5 28  0.00000000                                                 
PL51  -1444.358263  -4852.735655  11181.268082 999999.999999                    
VL51 -56871.319243 -14043.079476 -13152.145263 999999.999999                    
*  2021  1 21  5 30  0.00000000                                                 
PL51  -2125.684538  -5007.871744  11006.188029 999999.999999                    
VL51 -56647.993823 -11807.226469 -16019.980261 999999.999999                    
*  2021  1 21  5 32  0.00000000                                                 
PL51  -2803.069663  -5135.993083  10796.995234 999999.999999                    
VL51 -56214.581690  -9542.373306 -18836.151553 999999.999999                    
*  2021  1 21  5 34  0.00000000                                                 
PL51  -3473.998563  -5236.814833  10554.361512 999999.999999                    
VL51 -55572.211584  -7259.052551 -21592.049525 999999.999999                    
*  2021  1 21  5 36  0.00000000                                                 
PL51  -4135.974531  -5310.178654  10279.060781 999999.999999                    
VL51 -54722.814920  -4967.807723 -24279.270846 999999.999999                    
*  2021  1 21  5 38  0.00000000                                                 
PL51  -4786.528815  -5356.052570   9971.966443 999999.999999                    
VL51 -53669.117270  -2679.148066 -26889.642467 999999.999999                    
*  2021  1 21  5 40  0.00000000                                                 
PL51  -5423.230075  -5374.530286   9634.048474 999999.999999                    
VL51 -52414.626888   -403.503819 -29415.244782 999999.999999                    
*  2021  1 21  5 42  0.00000000                                                 
PL51  -6043.693698  -5365.829975   9266.370259 999999.999999                    
VL51 -50963.620369   1848.817864 -31848.433904 999999.999999                    
*  2021  1 21  5 44  0.00000000                                                 
PL51  -6645.590915  -5330.292539   8870.085141 999999.999999                    
VL51 -49321.125487   4067.676156 -34181.863029 999999.999999                    
*  2021  1 21  5 46  0.00000000                                                 
PL51  -7226.657700  -5268.379363   8446.432746 999999.999999                    
VL51 -47492.901309   6243.138834 -36408.502813 999999.999999                    
*  2021  1 21  5 48  0.00000000                                                 
PL51  -7784.703412  -5180.669559   7996.735046 999999.999999                    
VL51 -45485.415662   8365.523409 -38521.660749 999999.999999                    
*  2021  1 21  5 50  0.00000000                                                 
PL51  -8317.619151  -5067.856729   7522.392212 999999.999999                    
VL51 -43305.820050  10425.436981 -40514.999502 999999.999999                    
*  2021  1 21  5 52  0.00000000                                                 
PL51  -8823.385802  -4930.745264   7024.878244 999999.999999                    
VL51 -40961.922127  12413.814682 -42382.554170 999999.999999                    
*  2021  1 21  5 54  0.00000000                                                 
PL51  -9300.081731  -4770.246174   6505.736405 999999.999999                    
VL51 -38462.155816  14321.956554 -44118.748437 999999.999999                    
*  2021  1 21  5 56  0.00000000                                                 
PL51  -9745.890108  -4587.372507   5966.574467 999999.999999                    
VL51 -35815.549204  16141.562762 -45718.409602 999999.999999                    
*  2021  1 21  5 58  0.00000000                                                 
PL51 -10159.105835  -4383.234338   5409.059783 999999.999999                    
VL51 -33031.690296  17864.766992 -47176.782438 999999.999999                    
*  2021  1 21  6  0  0.00000000                                                 
PL51 -10538.142049  -4159.033378   4834.914199 999999.999999                    
VL51 -30120.690789  19484.167947 -48489.541865 999999.999999                    
*  2021  1 21  6  2  0.00000000                                                 
PL51 -10881.536182  -3916.057217   4245.908823 999999.999999                    
VL51 -27093.147965  20992.858804 -49652.804403 999999.999999                    
*  2021  1 21  6  4  0.00000000                                                 
PL51 -11187.955546  -3655.673221   3643.858666 999999.999999                    
VL51 -23960.104842  22384.454547 -50663.138378 999999.999999                    
*  2021  1 21  6  6  0.00000000                                                 
PL51 -11456.202439  -3379.322117   3030.617160 999999.999999                    
VL51 -20733.008753  23653.117077 -51517.572854 999999.999999                    
*  2021  1 21  6  8  0.00000000                                                 
PL51 -11685.218738  -3088.511296   2408.070586 999999.999999                    
VL51 -17423.668467  24793.577995 -52213.605271 999999.999999                    
*  2021  1 21  6 10  0.00000000                                                 
PL51 -11874.089974  -2784.807846   1778.132414 999999.999999                    
VL51 -14044.210043  25801.159007 -52749.207779 999999.999999                    
*  2021  1 21  6 12  0.00000000                                                 
PL51 -12022.048869  -2469.831363   1142.737573 999999.999999                    
VL51 -10607.031565  26671.789851 -53122.832236 999999.999999                    
*  2021  1 21  6 14  0.00000000                                                 
PL51 -12128.478324  -2145.246562    503.836673 999999.999999                    
VL51  -7124.756927  27402.023704 -53333.413883 999999.999999                    
*  2021  1 21  6 16  0.00000000                                                 
PL51 -12192.913845  -1812.755711   -136.609811 999999.999999                    
VL51  -3610.188842  27989.050022 -53380.373675 999999.999999                    
EOF                                                                             
